STARLINK-3894           
1 52499U 22049BA  26008.26969770 -.00003343  00000+0 -19211-3 0  9999
2 52499  53.2186 320.3583 0001047  76.0471 284.0638 15.08834247203274
STARLINK-3866           
1 52500U 22049BB  26008.24485928 -.00001409  00000+0 -70462-4 0  9995
2 52500  53.2177 310.4686 0001245  97.7535 262.3598 15.08847457203408
STARLINK-3907           
1 52501U 22049BC  26008.18135973  .00000049  00000+0  21180-4 0  9991
2 52501  53.2186 320.5519 0001331  88.6414 271.4731 15.08842771203265
STARLINK-3912           
1 52502U 22049BD  26008.10870366 -.00000389  00000+0 -63444-5 0  9995
2 52502  53.2183 311.1096 0001382  83.5333 276.5817 15.08847944203380
STARLINK-3861           
1 52503U 22049BE  26008.23012918  .00011083  00000+0  71317-3 0  9998
2 52503  53.2172 310.4201 0001538  86.3992 273.7176 15.08848265203401
STARLINK-3952           
1 52534U 22051B   26008.30282326 -.00000469  00000+0 -11409-4 0  9990
2 52534  53.2187  40.2072 0001343  93.0181 267.0965 15.08839386203062
STARLINK-3958           
1 52535U 22051C   26008.29915843 -.00000367  00000+0 -49750-5 0  9994
2 52535  53.2174  40.2252 0001338  90.1171 269.9975 15.08830095202328
STARLINK-3964           
1 52536U 22051D   26008.29545967 -.00000106  00000+0  11419-4 0  9991
2 52536  53.2181  40.2403 0001481  98.0164 262.0996 15.08840940202320
STARLINK-3897           
1 52537U 22051E   26008.33959655  .00000441  00000+0  45770-4 0  9998
2 52537  53.2182  39.8517 0001585  85.3930 274.7243 15.08843037202333
STARLINK-3933           
1 52538U 22051F   26008.28442135  .00000106  00000+0  24731-4 0  9995
2 52538  53.2176  40.2910 0001429 106.1461 253.9689 15.08845121202326
STARLINK-3757           
1 52539U 22051G   26008.28810049  .00001496  00000+0  11212-3 0  9991
2 52539  53.2178  40.2745 0001346  88.2289 271.8857 15.08820611202324
STARLINK-3940           
1 52540U 22051H   26008.34330850  .00000034  00000+0  20202-4 0  9994
2 52540  53.2190  40.0669 0001314  86.6948 273.4195 15.08840760202333
STARLINK-3845           
1 52541U 22051J   26008.30788191 -.00000411  00000+0 -77584-5 0  9993
2 52541  53.2182  45.1844 0001389  95.8250 264.2900 15.08838080202251
STARLINK-3937           
1 52542U 22051K   26008.33594204  .00000419  00000+0  44390-4 0  9991
2 52542  53.2188  40.0597 0001385  87.8611 272.2540 15.08841610202336
STARLINK-3926           
1 52543U 22051L   26008.28074211 -.00005603  00000+0 -33404-3 0  9992
2 52543  53.2191  40.3093 0001218  91.3797 268.7334 15.08860301202323
STARLINK-3944           
1 52544U 22051M   26008.30052334 -.00000152  00000+0  85704-5 0  9993
2 52544  53.2179  45.2311 0001474  88.2087 271.9074 15.08839475202255
