[{"OBJECT_NAME":"STARLINK-3894","OBJECT_ID":"2022-049BA","EPOCH":"2026-01-08T06:28:21.881280","MEAN_MOTION":15.08834247,"ECCENTRICITY":0.0001047,"INCLINATION":53.2186,"RA_OF_ASC_NODE":320.3583,"ARG_OF_PERICENTER":76.0471,"MEAN_ANOMALY":284.0638,"EPHEMERIS_TYPE":0,"CLASSIFICATION_TYPE":"U","NORAD_CAT_ID":52499,"ELEMENT_SET_NO":999,"REV_AT_EPOCH":20327,"BSTAR":-0.00019211477,"MEAN_MOTION_DOT":-3.343e-5,"MEAN_MOTION_DDOT":0},{"OBJECT_NAME":"STARLINK-3866","OBJECT_ID":"2022-049BB","EPOCH":"2026-01-08T05:52:35.841792","MEAN_MOTION":15.08847457,"ECCENTRICITY":0.00012455,"INCLINATION":53.2177,"RA_OF_ASC_NODE":310.4686,"ARG_OF_PERICENTER":97.7535,"MEAN_ANOMALY":262.3598,"EPHEMERIS_TYPE":0,"CLASSIFICATION_TYPE":"U","NORAD_CAT_ID":52500,"ELEMENT_SET_NO":999,"REV_AT_EPOCH":20340,"BSTAR":-7.0462144e-5,"MEAN_MOTION_DOT":-1.409e-5,"MEAN_MOTION_DDOT":0},{"OBJECT_NAME":"STARLINK-3907","OBJECT_ID":"2022-049BC","EPOCH":"2026-01-08T04:21:09.480672","MEAN_MOTION":15.08842771,"ECCENTRICITY":0.00013312,"INCLINATION":53.2186,"RA_OF_ASC_NODE":320.5519,"ARG_OF_PERICENTER":88.6414,"MEAN_ANOMALY":271.4731,"EPHEMERIS_TYPE":0,"CLASSIFICATION_TYPE":"U","NORAD_CAT_ID":52501,"ELEMENT_SET_NO":999,"REV_AT_EPOCH":20326,"BSTAR":2.1180113e-5,"MEAN_MOTION_DOT":4.9e-7,"MEAN_MOTION_DDOT":0},{"OBJECT_NAME":"STARLINK-3912","OBJECT_ID":"2022-049BD","EPOCH":"2026-01-08T02:36:31.996224","MEAN_MOTION":15.08847944,"ECCENTRICITY":0.00013829,"INCLINATION":53.2183,"RA_OF_ASC_NODE":311.1096,"ARG_OF_PERICENTER":83.5333,"MEAN_ANOMALY":276.5817,"EPHEMERIS_TYPE":0,"CLASSIFICATION_TYPE":"U","NORAD_CAT_ID":52502,"ELEMENT_SET_NO":999,"REV_AT_EPOCH":20338,"BSTAR":-6.34445e-6,"MEAN_MOTION_DOT":-3.89e-6,"MEAN_MOTION_DDOT":0},{"OBJECT_NAME":"STARLINK-3861","OBJECT_ID":"2022-049BE","EPOCH":"2026-01-08T05:31:23.161152","MEAN_MOTION":15.08848265,"ECCENTRICITY":0.00015388,"INCLINATION":53.2172,"RA_OF_ASC_NODE":310.4201,"ARG_OF_PERICENTER":86.3992,"MEAN_ANOMALY":273.7176,"EPHEMERIS_TYPE":0,"CLASSIFICATION_TYPE":"U","NORAD_CAT_ID":52503,"ELEMENT_SET_NO":999,"REV_AT_EPOCH":20340,"BSTAR":0.00071317246,"MEAN_MOTION_DOT":0.00011083,"MEAN_MOTION_DDOT":0},{"OBJECT_NAME":"STARLINK-3952","OBJECT_ID":"2022-051B","EPOCH":"2026-01-08T07:16:03.929664","MEAN_MOTION":15.08839386,"ECCENTRICITY":0.00013438,"INCLINATION":53.2187,"RA_OF_ASC_NODE":40.2072,"ARG_OF_PERICENTER":93.0181,"MEAN_ANOMALY":267.0965,"EPHEMERIS_TYPE":0,"CLASSIFICATION_TYPE":"U","NORAD_CAT_ID":52534,"ELEMENT_SET_NO":999,"REV_AT_EPOCH":20306,"BSTAR":-1.1408936e-5,"MEAN_MOTION_DOT":-4.69e-6,"MEAN_MOTION_DDOT":0},{"OBJECT_NAME":"STARLINK-3958","OBJECT_ID":"2022-051C","EPOCH":"2026-01-08T07:10:47.288352","MEAN_MOTION":15.08830095,"ECCENTRICITY":0.00013382,"INCLINATION":53.2174,"RA_OF_ASC_NODE":40.2252,"ARG_OF_PERICENTER":90.1171,"MEAN_ANOMALY":269.9975,"EPHEMERIS_TYPE":0,"CLASSIFICATION_TYPE":"U","NORAD_CAT_ID":52535,"ELEMENT_SET_NO":999,"REV_AT_EPOCH":20232,"BSTAR":-4.975044e-6,"MEAN_MOTION_DOT":-3.67e-6,"MEAN_MOTION_DDOT":0},{"OBJECT_NAME":"STARLINK-3964","OBJECT_ID":"2022-051D","EPOCH":"2026-01-08T07:05:27.715488","MEAN_MOTION":15.0884094,"ECCENTRICITY":0.00014813,"INCLINATION":53.2181,"RA_OF_ASC_NODE":40.2403,"ARG_OF_PERICENTER":98.0164,"MEAN_ANOMALY":262.0996,"EPHEMERIS_TYPE":0,"CLASSIFICATION_TYPE":"U","NORAD_CAT_ID":52536,"ELEMENT_SET_NO":999,"REV_AT_EPOCH":20232,"BSTAR":1.1418681e-5,"MEAN_MOTION_DOT":-1.06e-6,"MEAN_MOTION_DDOT":0},{"OBJECT_NAME":"STARLINK-3897","OBJECT_ID":"2022-051E","EPOCH":"2026-01-08T08:09:01.141920","MEAN_MOTION":15.08843037,"ECCENTRICITY":0.00015854,"INCLINATION":53.2182,"RA_OF_ASC_NODE":39.8517,"ARG_OF_PERICENTER":85.393,"MEAN_ANOMALY":274.7243,"EPHEMERIS_TYPE":0,"CLASSIFICATION_TYPE":"U","NORAD_CAT_ID":52537,"ELEMENT_SET_NO":999,"REV_AT_EPOCH":20233,"BSTAR":4.5769515e-5,"MEAN_MOTION_DOT":4.41e-6,"MEAN_MOTION_DDOT":0},{"OBJECT_NAME":"STARLINK-3933","OBJECT_ID":"2022-051F","EPOCH":"2026-01-08T06:49:34.004640","MEAN_MOTION":15.08845121,"ECCENTRICITY":0.00014294,"INCLINATION":53.2176,"RA_OF_ASC_NODE":40.291,"ARG_OF_PERICENTER":106.1461,"MEAN_ANOMALY":253.9689,"EPHEMERIS_TYPE":0,"CLASSIFICATION_TYPE":"U","NORAD_CAT_ID":52538,"ELEMENT_SET_NO":999,"REV_AT_EPOCH":20232,"BSTAR":2.4730864e-5,"MEAN_MOTION_DOT":1.06e-6,"MEAN_MOTION_DDOT":0},{"OBJECT_NAME":"STARLINK-3757","OBJECT_ID":"2022-051G","EPOCH":"2026-01-08T06:54:51.882336","MEAN_MOTION":15.08820611,"ECCENTRICITY":0.0001346,"INCLINATION":53.2178,"RA_OF_ASC_NODE":40.2745,"ARG_OF_PERICENTER":88.2289,"MEAN_ANOMALY":271.8857,"EPHEMERIS_TYPE":0,"CLASSIFICATION_TYPE":"U","NORAD_CAT_ID":52539,"ELEMENT_SET_NO":999,"REV_AT_EPOCH":20232,"BSTAR":0.0001121164,"MEAN_MOTION_DOT":1.496e-5,"MEAN_MOTION_DDOT":0},{"OBJECT_NAME":"STARLINK-3940","OBJECT_ID":"2022-051H","EPOCH":"2026-01-08T08:14:21.854400","MEAN_MOTION":15.0884076,"ECCENTRICITY":0.00013145,"INCLINATION":53.219,"RA_OF_ASC_NODE":40.0669,"ARG_OF_PERICENTER":86.6948,"MEAN_ANOMALY":273.4195,"EPHEMERIS_TYPE":0,"CLASSIFICATION_TYPE":"U","NORAD_CAT_ID":52540,"ELEMENT_SET_NO":999,"REV_AT_EPOCH":20233,"BSTAR":2.0202495e-5,"MEAN_MOTION_DOT":3.4e-7,"MEAN_MOTION_DDOT":0},{"OBJECT_NAME":"STARLINK-3845","OBJECT_ID":"2022-051J","EPOCH":"2026-01-08T07:23:20.997024","MEAN_MOTION":15.0883808,"ECCENTRICITY":0.00013897,"INCLINATION":53.2182,"RA_OF_ASC_NODE":45.1844,"ARG_OF_PERICENTER":95.825,"MEAN_ANOMALY":264.29,"EPHEMERIS_TYPE":0,"CLASSIFICATION_TYPE":"U","NORAD_CAT_ID":52541,"ELEMENT_SET_NO":999,"REV_AT_EPOCH":20225,"BSTAR":-7.758415e-6,"MEAN_MOTION_DOT":-4.11e-6,"MEAN_MOTION_DDOT":0},{"OBJECT_NAME":"STARLINK-3937","OBJECT_ID":"2022-051K","EPOCH":"2026-01-08T08:03:45.392256","MEAN_MOTION":15.0884161,"ECCENTRICITY":0.00013852,"INCLINATION":53.2188,"RA_OF_ASC_NODE":40.0597,"ARG_OF_PERICENTER":87.8611,"MEAN_ANOMALY":272.254,"EPHEMERIS_TYPE":0,"CLASSIFICATION_TYPE":"U","NORAD_CAT_ID":52542,"ELEMENT_SET_NO":999,"REV_AT_EPOCH":20233,"BSTAR":4.438953e-5,"MEAN_MOTION_DOT":4.19e-6,"MEAN_MOTION_DDOT":0},{"OBJECT_NAME":"STARLINK-3926","OBJECT_ID":"2022-051L","EPOCH":"2026-01-08T06:44:16.118304","MEAN_MOTION":15.08860301,"ECCENTRICITY":0.00012186,"INCLINATION":53.2191,"RA_OF_ASC_NODE":40.3093,"ARG_OF_PERICENTER":91.3797,"MEAN_ANOMALY":268.7334,"EPHEMERIS_TYPE":0,"CLASSIFICATION_TYPE":"U","NORAD_CAT_ID":52543,"ELEMENT_SET_NO":999,"REV_AT_EPOCH":20232,"BSTAR":-0.00033403834,"MEAN_MOTION_DOT":-5.603e-5,"MEAN_MOTION_DDOT":0},{"OBJECT_NAME":"STARLINK-3944","OBJECT_ID":"2022-051M","EPOCH":"2026-01-08T07:12:45.216576","MEAN_MOTION":15.08839475,"ECCENTRICITY":0.0001474,"INCLINATION":53.2179,"RA_OF_ASC_NODE":45.2311,"ARG_OF_PERICENTER":88.2087,"MEAN_ANOMALY":271.9074,"EPHEMERIS_TYPE":0,"CLASSIFICATION_TYPE":"U","NORAD_CAT_ID":52544,"ELEMENT_SET_NO":999,"REV_AT_EPOCH":20225,"BSTAR":8.570371e-6,"MEAN_MOTION_DOT":-1.52e-6,"MEAN_MOTION_DDOT":0}]
